[{"OBJECT_NAME":"UHETSAT","OBJECT_ID":"2023-185E","EPOCH":"2026-03-09T22:39:26.455680","MEAN_MOTION":15.29797662,"ECCENTRICITY":0.00118435,"INCLINATION":97.3584,"RA_OF_ASC_NODE":137.3576,"ARG_OF_PERICENTER":307.7346,"MEAN_ANOMALY":52.2821,"EPHEMERIS_TYPE":0,"CLASSIFICATION_TYPE":"U","NORAD_CAT_ID":58466,"ELEMENT_SET_NO":999,"REV_AT_EPOCH":12611,"BSTAR":0.00030513019,"MEAN_MOTION_DOT":8.749e-5,"MEAN_MOTION_DDOT":0},{"OBJECT_NAME":"STARLINK-31997","OBJECT_ID":"2024-132L","EPOCH":"2026-03-09T08:29:51.951264","MEAN_MOTION":15.3018917,"ECCENTRICITY":0.00013541,"INCLINATION":53.161,"RA_OF_ASC_NODE":53.6553,"ARG_OF_PERICENTER":80.5679,"MEAN_ANOMALY":279.5475,"EPHEMERIS_TYPE":0,"CLASSIFICATION_TYPE":"U","NORAD_CAT_ID":60288,"ELEMENT_SET_NO":999,"REV_AT_EPOCH":9151,"BSTAR":-3.6062201e-5,"MEAN_MOTION_DOT":-1.427e-5,"MEAN_MOTION_DDOT":0}]
